NORAD_CAT_ID,OBJECT_NAME,OBJECT_TYPE,EPOCH,MEAN_MOTION,ECCENTRICITY,INCLINATION,RA_OF_ASC_NODE,ARG_OF_PERICENTER,MEAN_ANOMALY,BSTAR,MEAN_MOTION_DOT,MEAN_MOTION_DDOT,TLE_LINE0,TLE_LINE1,TLE_LINE2,SEMIMAJOR_AXIS,PERIOD,APOGEE,PERIGEE,DECAYED
51717.0,STARLINK-3445,PAYLOAD,2022-08-23 00:00:00,15.08874934,0.0001794,53.2174,21.2247,45.8556,254.1028,-0.0040662,-0.00064485,0.0,0 STARLINK-3445,1 51717U 22016D   22235.00001157 -.00064485  00000-0 -40662-2 0  9999,2 51717  53.2174  21.2247 0001794  45.8556 254.1028 15.08874934  1302,6917.774,95.435,540.88,538.398,0.0
51717.0,STARLINK-3445,PAYLOAD,2022-08-23 14:00:01,15.08840158,0.0001855999999999,53.2173,18.6058,51.835,178.4112,-0.0014462,-0.00023231,0.0,0 STARLINK-3445,1 51717U 22016D   22235.58334491 -.00023231  00000-0 -14462-2 0  9995,2 51717  53.2173  18.6058 0001856  51.8350 178.4112 15.08840158 29199,6917.88,95.438,541.029,538.461,0.0
51717.0,STARLINK-3445,PAYLOAD,2022-08-23 22:00:01,15.08827215,0.0001936,53.2166,17.11,47.5314,194.3622,0.0011265,0.0001768,0.0,0 STARLINK-3445,1 51717U 22016D   22235.91668981  .00017680  00000-0  11265-2 0  9993,2 51717  53.2166  17.1100 0001936  47.5314 194.3622 15.08827215  1309,6917.919,95.438,541.124,538.445,0.0
51717.0,STARLINK-3445,PAYLOAD,2022-08-24 08:00:01,15.08821424,0.0001792,53.2165,15.2376,54.8802,291.4394,0.0026554,0.00042205,0.0,0 STARLINK-3445,1 51717U 22016D   22236.33334491  .00042205  00000-0  26554-2 0  9994,2 51717  53.2165  15.2376 0001792  54.8802 291.4394 15.08821424 29306,6917.937,95.439,541.0419999999998,538.562,0.0
51717.0,STARLINK-3445,PAYLOAD,2022-08-24 14:00:01,15.0885357,0.0001893,53.2166,14.1166,51.5741,213.4352,-0.0012778,-0.00020575,0.0,0 STARLINK-3445,1 51717U 22016D   22236.58334491 -.00020575  00000-0 -12778-2 0  9992,2 51717  53.2166  14.1166 0001893  51.5741 213.4352 15.08853570  1305,6917.839,95.437,541.013,538.394,0.0
51717.0,STARLINK-3445,PAYLOAD,2022-08-24 16:00:00,15.08819661,0.0001950999999999,53.2166,13.7429,53.7886,304.1124,-0.00070341,-0.00011459,0.0,0 STARLINK-3445,1 51717U 22016D   22236.66667824 -.00011459  00000-0 -70341-3 0  9992,2 51717  53.2166  13.7429 0001951  53.7886 304.1124 15.08819661 29354,6917.943,95.439,541.1569999999998,538.4580000000002,0.0
51717.0,STARLINK-3445,PAYLOAD,2022-08-24 22:00:00,15.08819884,0.0001925,53.2164,12.6207,51.4404,225.1332,0.00031591,4.74e-05,0.0,0 STARLINK-3445,1 51717U 22016D   22236.91667824  .00004740  00000-0  31591-3 0  9997,2 51717  53.2164  12.6207 0001925  51.4404 225.1332 15.08819884  1301,6917.941999999999,95.439,541.139,538.475,0.0
51717.0,STARLINK-3445,PAYLOAD,2022-08-25 14:00:01,15.088367300000002,0.0001874,53.2169,9.6276,55.5509,244.1682,-0.0013885,-0.00022316,0.0,0 STARLINK-3445,1 51717U 22016D   22237.58334491 -.00022316  00000-0 -13885-2 0  9998,2 51717  53.2169   9.6276 0001874  55.5509 244.1682 15.08836730  1300,6917.89,95.438,541.052,538.4590000000002,0.0
51717.0,STARLINK-3445,PAYLOAD,2022-08-25 16:00:00,15.08830496,0.0001938,53.2169,9.2539,54.3312,338.286,-0.00054456,-8.942e-05,0.0,0 STARLINK-3445,1 51717U 22016D   22237.66667824 -.00008942  00000-0 -54456-3 0  9995,2 51717  53.2169   9.2539 0001938  54.3312 338.2860 15.08830496 29517,6917.909000000002,95.438,541.115,538.434,0.0
51717.0,STARLINK-3445,PAYLOAD,2022-08-25 22:00:00,15.08836599,0.0001892,53.2166,8.1315,52.0939,259.2052,-0.00032498,-5.456e-05,0.0,0 STARLINK-3445,1 51717U 22016D   22237.91667824 -.00005456  00000-0 -32498-3 0  9992,2 51717  53.2166   8.1315 0001892  52.0939 259.2052 15.08836599  1305,6917.891,95.438,541.065,538.447,0.0
51717.0,STARLINK-3445,PAYLOAD,2022-08-26 14:00:01,15.08847957,0.0001875,53.2172,5.1337,56.0207,278.5174,-0.0017762999999999,-0.00028453,0.0,0 STARLINK-3445,1 51717U 22016D   22238.58335648 -.00028453  00000-0 -17763-2 0  9991,2 51717  53.2172   5.1337 0001875  56.0207 278.5174 15.08847957  1305,6917.856,95.437,541.018,538.424,0.0
51717.0,STARLINK-3445,PAYLOAD,2022-08-26 22:00:00,15.08851142,0.0001861,53.2164,3.6424,53.1511,292.9144,-0.00078135,-0.00012706,0.0,0 STARLINK-3445,1 51717U 22016D   22238.91667824 -.00012706  00000-0 -78135-3 0  9997,2 51717  53.2164   3.6424 0001861  53.1511 292.9144 15.08851142  1305,6917.846,95.437,540.999,538.424,0.0
51717.0,STARLINK-3445,PAYLOAD,2022-08-27 14:00:01,15.08858445,0.0001858,53.2165,0.6499,56.8823,312.3876,-0.0012396,-0.00019972,0.0,0 STARLINK-3445,1 51717U 22016D   22239.58334491 -.00019972  00000-0 -12396-2 0  9990,2 51717  53.2165   0.6499 0001858  56.8823 312.3876 15.08858445  1309,6917.824000000001,95.436,540.974,538.404,0.0
51717.0,STARLINK-3445,PAYLOAD,2022-08-27 22:00:00,15.08867142,0.0001853,53.2162,359.1534,54.0926,326.7841,-0.0010181,-0.00016467,0.0,0 STARLINK-3445,1 51717U 22016D   22239.91667824 -.00016467  00000-0 -10181-2 0  9992,2 51717  53.2162 359.1534 0001853  54.0926 326.7841 15.08867142 29852,6917.797,95.436,540.944,538.381,0.0
51717.0,STARLINK-3445,PAYLOAD,2022-08-28 14:00:01,15.08876931,0.0001818,53.2162,356.161,55.5665,348.5588,-0.0036914,-0.00058619,0.0,0 STARLINK-3445,1 51717U 22016D   22240.58334491 -.00058619  00000-0 -36914-2 0  9995,2 51717  53.2162 356.1610 0001818  55.5665 348.5588 15.08876931  1307,6917.768,95.435,540.89,538.375,0.0
51717.0,STARLINK-3445,PAYLOAD,2022-08-28 22:00:00,15.08869792,0.0001742,53.216,354.6643,50.6607,5.0727,-0.0030941999999999,-0.00049236,0.0,0 STARLINK-3445,1 51717U 22016D   22240.91667824 -.00049236  00000-0 -30942-2 0  9991,2 51717  53.2160 354.6643 0001742  50.6607   5.0727 15.08869792  1309,6917.7890000000025,95.436,540.859,538.4490000000002,0.0
51717.0,STARLINK-3445,PAYLOAD,2022-08-29 14:00:01,15.08831271,0.0001743,53.2161,351.672,51.7147,27.2056,-0.00089749,-0.0001453999999999,0.0,0 STARLINK-3445,1 51717U 22016D   22241.58334491 -.00014540  00000-0 -89749-3 0  9996,2 51717  53.2161 351.6720 0001743  51.7147  27.2056 15.08831271  1307,6917.906999999997,95.438,540.9780000000002,538.566,0.0
51717.0,STARLINK-3445,PAYLOAD,2022-08-29 16:00:00,15.08818521,0.000177,53.2163,351.2982,49.933,121.8887,0.0016469999999999,0.00026006,0.0,0 STARLINK-3445,1 51717U 22016D   22241.66667824  .00026006  00000-0  16470-2 0  9992,2 51717  53.2163 351.2982 0001770  49.9330 121.8887 15.08818521 30115,6917.946,95.439,541.036,538.587,0.0
51717.0,STARLINK-3445,PAYLOAD,2022-08-29 22:00:00,15.08850696,0.000173,53.2161,350.1752,48.7984,41.7021,-0.0011923,-0.00019219,0.0,0 STARLINK-3445,1 51717U 22016D   22241.91667824 -.00019219  00000-0 -11923-2 0  9998,2 51717  53.2161 350.1752 0001730  48.7984  41.7021 15.08850696  1302,6917.848000000001,95.437,540.909,538.516,0.0
51717.0,STARLINK-3445,PAYLOAD,2022-08-30 14:00:01,15.08858649,0.0001786,53.2162,347.18300000000005,49.889,63.8009,-0.0024715,-0.00039428,0.0,0 STARLINK-3445,1 51717U 22016D   22242.58334491 -.00039428  00000-0 -24715-2 0  9990,2 51717  53.2162 347.1830 0001786  49.8890  63.8009 15.08858649  1302,6917.823,95.436,540.924,538.453,0.0
51717.0,STARLINK-3445,PAYLOAD,2022-08-30 16:00:00,15.08843344,0.0001799,53.2164,346.8092,47.997,158.599,-0.00079548,-0.00012927,0.0,0 STARLINK-3445,1 51717U 22016D   22242.66667824 -.00012927  00000-0 -79548-3 0  9998,2 51717  53.2164 346.8092 0001799  47.9970 158.5990 15.08843344 30266,6917.87,95.437,540.98,538.491,0.0
51717.0,STARLINK-3445,PAYLOAD,2022-08-30 22:00:00,15.08846058,0.0001695,53.2163,345.6861,46.5219,78.7688,-0.0020323,-0.00032492,0.0,0 STARLINK-3445,1 51717U 22016D   22242.91667824 -.00032492  00000-0 -20323-2 0  9991,2 51717  53.2163 345.6861 0001695  46.5219  78.7688 15.08846058  1307,6917.861999999999,95.437,540.899,538.554,0.0
51717.0,STARLINK-3445,PAYLOAD,2022-08-31 14:00:01,15.08838625,0.0001774999999999,53.2165,342.6938,47.5747,100.898,-3.1293e-05,-7.86e-06,0.0,0 STARLINK-3445,1 51717U 22016D   22243.58334491 -.00000786  00000-0 -31293-4 0  9997,2 51717  53.2165 342.6938 0001775  47.5747 100.8980 15.08838625  1300,6917.885,95.438,540.9780000000002,538.5219999999998,0.0
51717.0,STARLINK-3445,PAYLOAD,2022-08-31 22:00:00,15.08873613,0.0001761,53.2164,341.1968,47.7537,112.306,-0.0043091,-0.00068281,0.0,0 STARLINK-3445,1 51717U 22016D   22243.91667824 -.00068281  00000-0 -43091-2 0  9994,2 51717  53.2164 341.1968 0001761  47.7537 112.3060 15.08873613 30451,6917.778,95.435,540.861,538.424,0.0
51717.0,STARLINK-3445,PAYLOAD,2022-09-01 14:00:01,15.08823442,0.0001893,53.2166,338.2046,49.5787,133.7256,0.00035494,5.363e-05,0.0,0 STARLINK-3445,1 51717U 22016D   22244.58335648  .00005363  00000-0  35494-3 0  9993,2 51717  53.2166 338.2046 0001893  49.5787 133.7256 15.08823442  1301,6917.931,95.439,541.106,538.486,0.0
51717.0,STARLINK-3445,PAYLOAD,2022-09-01 22:00:00,15.08850475,0.0001805,53.2164,336.7074,50.0962,144.7204,-0.0018461999999999,-0.00029559,0.0,0 STARLINK-3445,1 51717U 22016D   22244.91667824 -.00029559  00000-0 -18462-2 0  9994,2 51717  53.2164 336.7074 0001805  50.0962 144.7204 15.08850475  1309,6917.848000000001,95.437,540.962,538.465,0.0
51717.0,STARLINK-3445,PAYLOAD,2022-09-02 14:00:01,15.08836466,0.0001872,53.2164,333.7154,49.3215,168.68900000000005,0.00070985,0.00011026,0.0,0 STARLINK-3445,1 51717U 22016D   22245.58334491  .00011026  00000-0  70985-3 0  9996,2 51717  53.2164 333.7154 0001872  49.3215 168.6890 15.08836466  1301,6917.891,95.438,541.0509999999998,538.461,0.0
51717.0,STARLINK-3445,PAYLOAD,2022-09-02 16:00:00,15.08825225,0.0001875,53.2164,333.3415,48.2638,262.649,0.0025277,0.00040154,0.0,0 STARLINK-3445,1 51717U 22016D   22245.66667824  .00040154  00000-0  25277-2 0  9991,2 51717  53.2164 333.3415 0001875  48.2638 262.6490 15.08825225 30716,6917.926,95.438,541.0880000000002,538.493,0.0
51717.0,STARLINK-3445,PAYLOAD,2022-09-02 22:00:01,15.08874639,0.0001719,53.2162,332.2179,49.6331,180.0312,-0.0048395,-0.00076564,0.0,0 STARLINK-3445,1 51717U 22016D   22245.91668981 -.00076564  00000-0 -48395-2 0  9996,2 51717  53.2162 332.2179 0001719  49.6331 180.0312 15.08874639  1303,6917.775,95.435,540.8290000000002,538.45,0.0
